{"fetched_at":"2026-03-29T16:36:15Z","count":15609,"tles":[{"name":"ONEWEB-0289","line1":"1 49079U 21075E   26087.78884998  .00009900  00000+0  25409-1 0  9996","line2":"2 49079  87.9181  21.8448 0002949  89.2489 270.8980 13.17724929223619","category":"Other"}]}